ONEWEB-0258             
1 48976U 21060K   26009.19470470  .00000058  00000+0  11837-3 0  9997
2 48976  87.9030 260.4418 0001430  78.8008 281.3283 13.16594159218672
ONEWEB-0259             
1 48977U 21060L   26009.18837048  .00000047  00000+0  88903-4 0  9992
2 48977  87.9039 260.4391 0001377  72.2126 287.9156 13.16594235218701
ONEWEB-0260             
1 48978U 21060M   26009.25564809 -.00000143  00000+0 -40757-3 0  9996
2 48978  87.9029 260.4366 0001979  72.9989 287.1359 13.16591973218696
ONEWEB-0261             
1 48979U 21060N   26009.22556859  .00000064  00000+0  13412-3 0  9998
2 48979  87.9029 260.4444 0001441  60.1130 300.0144 13.16596173218745
ONEWEB-0262             
1 48980U 21060P   26009.12978949  .00000133  00000+0  31307-3 0  9997
2 48980  87.9037 260.4395 0001177  75.9380 284.1882 13.16594182218691
ONEWEB-0263             
1 48981U 21060Q   26009.23745116  .00000031  00000+0  47287-4 0  9990
2 48981  87.9031 260.4308 0001358  61.2921 298.8346 13.16594796218676
ONEWEB-0264             
1 48982U 21060R   26009.19865911  .00000055  00000+0  11081-3 0  9990
2 48982  87.9034 260.4420 0001632  67.9297 292.2007 13.16595100218671
ONEWEB-0266             
1 48984U 21060T   26009.22003635  .00000156  00000+0  37468-3 0  9992
2 48984  87.9040 260.4257 0001373  81.1059 279.0227 13.16593867218668
