<?xml version="1.0" encoding="UTF-8"?>
<ndm xmlns:xsi="http://www.w3.org/2001/XMLSchema-instance" xsi:noNamespaceSchemaLocation="https://sanaregistry.org/r/ndmxml_unqualified/ndmxml-2.0.0-master-2.0.xsd">
<omm id="CCSDS_OMM_VERS" version="2.0">
<header><CREATION_DATE/><ORIGINATOR/></header><body><segment><metadata><OBJECT_NAME>ONEWEB-0258</OBJECT_NAME><OBJECT_ID>2021-060K</OBJECT_ID><CENTER_NAME>EARTH</CENTER_NAME><REF_FRAME>TEME</REF_FRAME><TIME_SYSTEM>UTC</TIME_SYSTEM><MEAN_ELEMENT_THEORY>SGP4</MEAN_ELEMENT_THEORY></metadata><data><meanElements><EPOCH>2026-01-09T04:40:22.486080</EPOCH><MEAN_MOTION>13.16594159</MEAN_MOTION><ECCENTRICITY>.00014308</ECCENTRICITY><INCLINATION>87.9030</INCLINATION><RA_OF_ASC_NODE>260.4418</RA_OF_ASC_NODE><ARG_OF_PERICENTER>78.8008</ARG_OF_PERICENTER><MEAN_ANOMALY>281.3283</MEAN_ANOMALY></meanElements><tleParameters><EPHEMERIS_TYPE>0</EPHEMERIS_TYPE><CLASSIFICATION_TYPE>U</CLASSIFICATION_TYPE><NORAD_CAT_ID>48976</NORAD_CAT_ID><ELEMENT_SET_NO>999</ELEMENT_SET_NO><REV_AT_EPOCH>21867</REV_AT_EPOCH><BSTAR>.11836859E-3</BSTAR><MEAN_MOTION_DOT>.58E-6</MEAN_MOTION_DOT><MEAN_MOTION_DDOT>0</MEAN_MOTION_DDOT></tleParameters></data></segment></body></omm>
<omm id="CCSDS_OMM_VERS" version="2.0">
<header><CREATION_DATE/><ORIGINATOR/></header><body><segment><metadata><OBJECT_NAME>ONEWEB-0259</OBJECT_NAME><OBJECT_ID>2021-060L</OBJECT_ID><CENTER_NAME>EARTH</CENTER_NAME><REF_FRAME>TEME</REF_FRAME><TIME_SYSTEM>UTC</TIME_SYSTEM><MEAN_ELEMENT_THEORY>SGP4</MEAN_ELEMENT_THEORY></metadata><data><meanElements><EPOCH>2026-01-09T04:31:15.209472</EPOCH><MEAN_MOTION>13.16594235</MEAN_MOTION><ECCENTRICITY>.00013773</ECCENTRICITY><INCLINATION>87.9039</INCLINATION><RA_OF_ASC_NODE>260.4391</RA_OF_ASC_NODE><ARG_OF_PERICENTER>72.2126</ARG_OF_PERICENTER><MEAN_ANOMALY>287.9156</MEAN_ANOMALY></meanElements><tleParameters><EPHEMERIS_TYPE>0</EPHEMERIS_TYPE><CLASSIFICATION_TYPE>U</CLASSIFICATION_TYPE><NORAD_CAT_ID>48977</NORAD_CAT_ID><ELEMENT_SET_NO>999</ELEMENT_SET_NO><REV_AT_EPOCH>21870</REV_AT_EPOCH><BSTAR>.88902747E-4</BSTAR><MEAN_MOTION_DOT>.47E-6</MEAN_MOTION_DOT><MEAN_MOTION_DDOT>0</MEAN_MOTION_DDOT></tleParameters></data></segment></body></omm>
<omm id="CCSDS_OMM_VERS" version="2.0">
<header><CREATION_DATE/><ORIGINATOR/></header><body><segment><metadata><OBJECT_NAME>ONEWEB-0260</OBJECT_NAME><OBJECT_ID>2021-060M</OBJECT_ID><CENTER_NAME>EARTH</CENTER_NAME><REF_FRAME>TEME</REF_FRAME><TIME_SYSTEM>UTC</TIME_SYSTEM><MEAN_ELEMENT_THEORY>SGP4</MEAN_ELEMENT_THEORY></metadata><data><meanElements><EPOCH>2026-01-09T06:08:07.994976</EPOCH><MEAN_MOTION>13.16591973</MEAN_MOTION><ECCENTRICITY>.00019797</ECCENTRICITY><INCLINATION>87.9029</INCLINATION><RA_OF_ASC_NODE>260.4366</RA_OF_ASC_NODE><ARG_OF_PERICENTER>72.9989</ARG_OF_PERICENTER><MEAN_ANOMALY>287.1359</MEAN_ANOMALY></meanElements><tleParameters><EPHEMERIS_TYPE>0</EPHEMERIS_TYPE><CLASSIFICATION_TYPE>U</CLASSIFICATION_TYPE><NORAD_CAT_ID>48978</NORAD_CAT_ID><ELEMENT_SET_NO>999</ELEMENT_SET_NO><REV_AT_EPOCH>21869</REV_AT_EPOCH><BSTAR>-.40756603E-3</BSTAR><MEAN_MOTION_DOT>-.143E-5</MEAN_MOTION_DOT><MEAN_MOTION_DDOT>0</MEAN_MOTION_DDOT></tleParameters></data></segment></body></omm>
<omm id="CCSDS_OMM_VERS" version="2.0">
<header><CREATION_DATE/><ORIGINATOR/></header><body><segment><metadata><OBJECT_NAME>ONEWEB-0261</OBJECT_NAME><OBJECT_ID>2021-060N</OBJECT_ID><CENTER_NAME>EARTH</CENTER_NAME><REF_FRAME>TEME</REF_FRAME><TIME_SYSTEM>UTC</TIME_SYSTEM><MEAN_ELEMENT_THEORY>SGP4</MEAN_ELEMENT_THEORY></metadata><data><meanElements><EPOCH>2026-01-09T05:24:49.126176</EPOCH><MEAN_MOTION>13.16596173</MEAN_MOTION><ECCENTRICITY>.00014411</ECCENTRICITY><INCLINATION>87.9029</INCLINATION><RA_OF_ASC_NODE>260.4444</RA_OF_ASC_NODE><ARG_OF_PERICENTER>60.1130</ARG_OF_PERICENTER><MEAN_ANOMALY>300.0144</MEAN_ANOMALY></meanElements><tleParameters><EPHEMERIS_TYPE>0</EPHEMERIS_TYPE><CLASSIFICATION_TYPE>U</CLASSIFICATION_TYPE><NORAD_CAT_ID>48979</NORAD_CAT_ID><ELEMENT_SET_NO>999</ELEMENT_SET_NO><REV_AT_EPOCH>21874</REV_AT_EPOCH><BSTAR>.13412264E-3</BSTAR><MEAN_MOTION_DOT>.64E-6</MEAN_MOTION_DOT><MEAN_MOTION_DDOT>0</MEAN_MOTION_DDOT></tleParameters></data></segment></body></omm>
<omm id="CCSDS_OMM_VERS" version="2.0">
<header><CREATION_DATE/><ORIGINATOR/></header><body><segment><metadata><OBJECT_NAME>ONEWEB-0262</OBJECT_NAME><OBJECT_ID>2021-060P</OBJECT_ID><CENTER_NAME>EARTH</CENTER_NAME><REF_FRAME>TEME</REF_FRAME><TIME_SYSTEM>UTC</TIME_SYSTEM><MEAN_ELEMENT_THEORY>SGP4</MEAN_ELEMENT_THEORY></metadata><data><meanElements><EPOCH>2026-01-09T03:06:53.811936</EPOCH><MEAN_MOTION>13.16594182</MEAN_MOTION><ECCENTRICITY>.0001177</ECCENTRICITY><INCLINATION>87.9037</INCLINATION><RA_OF_ASC_NODE>260.4395</RA_OF_ASC_NODE><ARG_OF_PERICENTER>75.9380</ARG_OF_PERICENTER><MEAN_ANOMALY>284.1882</MEAN_ANOMALY></meanElements><tleParameters><EPHEMERIS_TYPE>0</EPHEMERIS_TYPE><CLASSIFICATION_TYPE>U</CLASSIFICATION_TYPE><NORAD_CAT_ID>48980</NORAD_CAT_ID><ELEMENT_SET_NO>999</ELEMENT_SET_NO><REV_AT_EPOCH>21869</REV_AT_EPOCH><BSTAR>.3130656E-3</BSTAR><MEAN_MOTION_DOT>.133E-5</MEAN_MOTION_DOT><MEAN_MOTION_DDOT>0</MEAN_MOTION_DDOT></tleParameters></data></segment></body></omm>
<omm id="CCSDS_OMM_VERS" version="2.0">
<header><CREATION_DATE/><ORIGINATOR/></header><body><segment><metadata><OBJECT_NAME>ONEWEB-0263</OBJECT_NAME><OBJECT_ID>2021-060Q</OBJECT_ID><CENTER_NAME>EARTH</CENTER_NAME><REF_FRAME>TEME</REF_FRAME><TIME_SYSTEM>UTC</TIME_SYSTEM><MEAN_ELEMENT_THEORY>SGP4</MEAN_ELEMENT_THEORY></metadata><data><meanElements><EPOCH>2026-01-09T05:41:55.780224</EPOCH><MEAN_MOTION>13.16594796</MEAN_MOTION><ECCENTRICITY>.00013586</ECCENTRICITY><INCLINATION>87.9031</INCLINATION><RA_OF_ASC_NODE>260.4308</RA_OF_ASC_NODE><ARG_OF_PERICENTER>61.2921</ARG_OF_PERICENTER><MEAN_ANOMALY>298.8346</MEAN_ANOMALY></meanElements><tleParameters><EPHEMERIS_TYPE>0</EPHEMERIS_TYPE><CLASSIFICATION_TYPE>U</CLASSIFICATION_TYPE><NORAD_CAT_ID>48981</NORAD_CAT_ID><ELEMENT_SET_NO>999</ELEMENT_SET_NO><REV_AT_EPOCH>21867</REV_AT_EPOCH><BSTAR>.47287147E-4</BSTAR><MEAN_MOTION_DOT>.31E-6</MEAN_MOTION_DOT><MEAN_MOTION_DDOT>0</MEAN_MOTION_DDOT></tleParameters></data></segment></body></omm>
<omm id="CCSDS_OMM_VERS" version="2.0">
<header><CREATION_DATE/><ORIGINATOR/></header><body><segment><metadata><OBJECT_NAME>ONEWEB-0264</OBJECT_NAME><OBJECT_ID>2021-060R</OBJECT_ID><CENTER_NAME>EARTH</CENTER_NAME><REF_FRAME>TEME</REF_FRAME><TIME_SYSTEM>UTC</TIME_SYSTEM><MEAN_ELEMENT_THEORY>SGP4</MEAN_ELEMENT_THEORY></metadata><data><meanElements><EPOCH>2026-01-09T04:46:04.147104</EPOCH><MEAN_MOTION>13.16595100</MEAN_MOTION><ECCENTRICITY>.00016328</ECCENTRICITY><INCLINATION>87.9034</INCLINATION><RA_OF_ASC_NODE>260.4420</RA_OF_ASC_NODE><ARG_OF_PERICENTER>67.9297</ARG_OF_PERICENTER><MEAN_ANOMALY>292.2007</MEAN_ANOMALY></meanElements><tleParameters><EPHEMERIS_TYPE>0</EPHEMERIS_TYPE><CLASSIFICATION_TYPE>U</CLASSIFICATION_TYPE><NORAD_CAT_ID>48982</NORAD_CAT_ID><ELEMENT_SET_NO>999</ELEMENT_SET_NO><REV_AT_EPOCH>21867</REV_AT_EPOCH><BSTAR>.11080639E-3</BSTAR><MEAN_MOTION_DOT>.55E-6</MEAN_MOTION_DOT><MEAN_MOTION_DDOT>0</MEAN_MOTION_DDOT></tleParameters></data></segment></body></omm>
<omm id="CCSDS_OMM_VERS" version="2.0">
<header><CREATION_DATE/><ORIGINATOR/></header><body><segment><metadata><OBJECT_NAME>ONEWEB-0266</OBJECT_NAME><OBJECT_ID>2021-060T</OBJECT_ID><CENTER_NAME>EARTH</CENTER_NAME><REF_FRAME>TEME</REF_FRAME><TIME_SYSTEM>UTC</TIME_SYSTEM><MEAN_ELEMENT_THEORY>SGP4</MEAN_ELEMENT_THEORY></metadata><data><meanElements><EPOCH>2026-01-09T05:16:51.140640</EPOCH><MEAN_MOTION>13.16593867</MEAN_MOTION><ECCENTRICITY>.00013737</ECCENTRICITY><INCLINATION>87.9040</INCLINATION><RA_OF_ASC_NODE>260.4257</RA_OF_ASC_NODE><ARG_OF_PERICENTER>81.1059</ARG_OF_PERICENTER><MEAN_ANOMALY>279.0227</MEAN_ANOMALY></meanElements><tleParameters><EPHEMERIS_TYPE>0</EPHEMERIS_TYPE><CLASSIFICATION_TYPE>U</CLASSIFICATION_TYPE><NORAD_CAT_ID>48984</NORAD_CAT_ID><ELEMENT_SET_NO>999</ELEMENT_SET_NO><REV_AT_EPOCH>21866</REV_AT_EPOCH><BSTAR>.37467546E-3</BSTAR><MEAN_MOTION_DOT>.156E-5</MEAN_MOTION_DOT><MEAN_MOTION_DDOT>0</MEAN_MOTION_DDOT></tleParameters></data></segment></body></omm>

</ndm>
